IRIDIUM 126             
1 42809U 17039G   25321.75003914  .00000443  00000+0  15114-3 0  9990
2 42809  86.3958  82.0321 0001957  89.2550 270.8870 14.34215041439644
IRIDIUM 124             
1 42810U 17039H   25321.59334396  .00000598  00000+0  17168-3 0  9997
2 42810  86.4523  18.8188 0001998  96.9052 263.2376 14.43271060444590
IRIDIUM 128             
1 42811U 17039J   25321.81052156  .00000504  00000+0  17274-3 0  9999
2 42811  86.3942 113.5408 0001819 103.2218 256.9181 14.34225294439686
IRIDIUM 121             
1 42812U 17039K   25321.76906406  .00000204  00000+0  65605-4 0  9999
2 42812  86.3961  82.0506 0002113  97.2239 262.9197 14.34216416439523
IRIDIUM 133             
1 42955U 17061A   25321.84225387  .00000290  00000+0  96638-4 0  9998
2 42955  86.3947 113.6402 0001934  93.1993 266.9424 14.34216961424484
IRIDIUM 100             
1 42956U 17061B   25321.83591066  .00000331  00000+0  11110-3 0  9995
2 42956  86.3946 113.5666 0001890  89.8028 270.3384 14.34217602424484
IRIDIUM 122             
1 42957U 17061C   25321.66465519  .00000491  00000+0  16813-3 0  9992
2 42957  86.3942 113.6376 0001948  90.1790 269.9629 14.34220486424463
IRIDIUM 129             
1 42958U 17061D   25321.82956266  .00000185  00000+0  58821-4 0  9991
2 42958  86.3943 113.6335 0002317  84.6303 275.5157 14.34219602424501
